[
    {
        "OBJECT_NAME": "SL-14 R/B",
        "OBJECT_ID": "1987-024B",
        "EPOCH": "2026-05-09T18:34:00.350688",
        "MEAN_MOTION": 14.86187182,
        "ECCENTRICITY": 0.0019632,
        "INCLINATION": 82.5304,
        "RA_OF_ASC_NODE": 35.3525,
        "ARG_OF_PERICENTER": 60.8278,
        "MEAN_ANOMALY": 299.49,
        "EPHEMERIS_TYPE": 0,
        "CLASSIFICATION_TYPE": "U",
        "NORAD_CAT_ID": 17567,
        "ELEMENT_SET_NO": 999,
        "REV_AT_EPOCH": 9720,
        "BSTAR": 3.115e-05,
        "MEAN_MOTION_DOT": 2.99e-06,
        "MEAN_MOTION_DDOT": 0
    },
    {
        "OBJECT_NAME": "COSMOS 1833",
        "OBJECT_ID": "1987-027A",
        "EPOCH": "2026-05-09T16:03:32.259168",
        "MEAN_MOTION": 14.13031549,
        "ECCENTRICITY": 0.002236,
        "INCLINATION": 70.915,
        "RA_OF_ASC_NODE": 197.8375,
        "ARG_OF_PERICENTER": 118.8833,
        "MEAN_ANOMALY": 241.4535,
        "EPHEMERIS_TYPE": 0,
        "CLASSIFICATION_TYPE": "U",
        "NORAD_CAT_ID": 17589,
        "ELEMENT_SET_NO": 999,
        "REV_AT_EPOCH": 1893,
        "BSTAR": -4.2233e-06,
        "MEAN_MOTION_DOT": -5.6e-07,
        "MEAN_MOTION_DDOT": 0
    },
    {
        "OBJECT_NAME": "SL-16 R/B",
        "OBJECT_ID": "1987-027B",
        "EPOCH": "2026-05-09T17:56:43.598976",
        "MEAN_MOTION": 14.17170625,
        "ECCENTRICITY": 0.0004465,
        "INCLINATION": 70.9995,
        "RA_OF_ASC_NODE": 147.8306,
        "ARG_OF_PERICENTER": 1.4116,
        "MEAN_ANOMALY": 358.702,
        "EPHEMERIS_TYPE": 0,
        "CLASSIFICATION_TYPE": "U",
        "NORAD_CAT_ID": 17590,
        "ELEMENT_SET_NO": 999,
        "REV_AT_EPOCH": 2399,
        "BSTAR": -3.9298e-05,
        "MEAN_MOTION_DOT": -1.27e-06,
        "MEAN_MOTION_DDOT": 0
    },
    {
        "OBJECT_NAME": "SL-14 R/B",
        "OBJECT_ID": "1987-038B",
        "EPOCH": "2026-05-09T19:11:47.950656",
        "MEAN_MOTION": 14.85421305,
        "ECCENTRICITY": 0.0018298,
        "INCLINATION": 82.5022,
        "RA_OF_ASC_NODE": 239.2263,
        "ARG_OF_PERICENTER": 326.4846,
        "MEAN_ANOMALY": 33.5211,
        "EPHEMERIS_TYPE": 0,
        "CLASSIFICATION_TYPE": "U",
        "NORAD_CAT_ID": 17912,
        "ELEMENT_SET_NO": 999,
        "REV_AT_EPOCH": 8830,
        "BSTAR": 2.988e-05,
        "MEAN_MOTION_DOT": 2.82e-06,
        "MEAN_MOTION_DDOT": 0
    },
    {
        "OBJECT_NAME": "COSMOS 1844",
        "OBJECT_ID": "1987-041A",
        "EPOCH": "2026-05-09T18:43:27.840576",
        "MEAN_MOTION": 14.14557506,
        "ECCENTRICITY": 0.0032771,
        "INCLINATION": 70.8984,
        "RA_OF_ASC_NODE": 265.3169,
        "ARG_OF_PERICENTER": 289.2348,
        "MEAN_ANOMALY": 70.5229,
        "EPHEMERIS_TYPE": 0,
        "CLASSIFICATION_TYPE": "U",
        "NORAD_CAT_ID": 17973,
        "ELEMENT_SET_NO": 999,
        "REV_AT_EPOCH": 1222,
        "BSTAR": 7.5335e-05,
        "MEAN_MOTION_DOT": 9.7e-07,
        "MEAN_MOTION_DDOT": 0
    },
    {
        "OBJECT_NAME": "SL-14 R/B",
        "OBJECT_ID": "1987-055B",
        "EPOCH": "2026-05-09T20:00:11.961792",
        "MEAN_MOTION": 14.85680871,
        "ECCENTRICITY": 0.0020946,
        "INCLINATION": 82.497,
        "RA_OF_ASC_NODE": 291.3883,
        "ARG_OF_PERICENTER": 167.3763,
        "MEAN_ANOMALY": 192.7982,
        "EPHEMERIS_TYPE": 0,
        "CLASSIFICATION_TYPE": "U",
        "NORAD_CAT_ID": 18153,
        "ELEMENT_SET_NO": 999,
        "REV_AT_EPOCH": 7901,
        "BSTAR": 3.7465e-05,
        "MEAN_MOTION_DOT": 3.5e-06,
        "MEAN_MOTION_DDOT": 0
    },
    {
        "OBJECT_NAME": "COSMOS 1867",
        "OBJECT_ID": "1987-060A",
        "EPOCH": "2026-05-09T10:19:30.237312",
        "MEAN_MOTION": 14.31511399,
        "ECCENTRICITY": 0.0015703,
        "INCLINATION": 65.0084,
        "RA_OF_ASC_NODE": 136.5989,
        "ARG_OF_PERICENTER": 281.4555,
        "MEAN_ANOMALY": 78.4766,
        "EPHEMERIS_TYPE": 0,
        "CLASSIFICATION_TYPE": "U",
        "NORAD_CAT_ID": 18187,
        "ELEMENT_SET_NO": 999,
        "REV_AT_EPOCH": 2863,
        "BSTAR": 2.3281e-05,
        "MEAN_MOTION_DOT": -3.8e-07,
        "MEAN_MOTION_DDOT": 0
    },
    {
        "OBJECT_NAME": "SL-14 R/B",
        "OBJECT_ID": "1988-001B",
        "EPOCH": "2026-05-09T18:22:26.539680",
        "MEAN_MOTION": 14.85580376,
        "ECCENTRICITY": 0.0019059,
        "INCLINATION": 82.5109,
        "RA_OF_ASC_NODE": 137.9217,
        "ARG_OF_PERICENTER": 40.508,
        "MEAN_ANOMALY": 319.7551,
        "EPHEMERIS_TYPE": 0,
        "CLASSIFICATION_TYPE": "U",
        "NORAD_CAT_ID": 18749,
        "ELEMENT_SET_NO": 999,
        "REV_AT_EPOCH": 5109,
        "BSTAR": 3.3115e-05,
        "MEAN_MOTION_DOT": 3.12e-06,
        "MEAN_MOTION_DDOT": 0
    },
    {
        "OBJECT_NAME": "COSMOS 1933",
        "OBJECT_ID": "1988-020A",
        "EPOCH": "2026-05-09T14:55:50.025792",
        "MEAN_MOTION": 15.18486149,
        "ECCENTRICITY": 0.0003804,
        "INCLINATION": 82.5143,
        "RA_OF_ASC_NODE": 190.6164,
        "ARG_OF_PERICENTER": 12.8314,
        "MEAN_ANOMALY": 347.3016,
        "EPHEMERIS_TYPE": 0,
        "CLASSIFICATION_TYPE": "U",
        "NORAD_CAT_ID": 18958,
        "ELEMENT_SET_NO": 999,
        "REV_AT_EPOCH": 5947,
        "BSTAR": 9.8988e-05,
        "MEAN_MOTION_DOT": 2.071e-05,
        "MEAN_MOTION_DDOT": 0
    },
    {
        "OBJECT_NAME": "SL-3 R/B",
        "OBJECT_ID": "1988-032B",
        "EPOCH": "2026-05-09T19:33:13.662144",
        "MEAN_MOTION": 15.20528197,
        "ECCENTRICITY": 0.0026344,
        "INCLINATION": 97.5245,
        "RA_OF_ASC_NODE": 112.9088,
        "ARG_OF_PERICENTER": 24.8612,
        "MEAN_ANOMALY": 335.3886,
        "EPHEMERIS_TYPE": 0,
        "CLASSIFICATION_TYPE": "U",
        "NORAD_CAT_ID": 19046,
        "ELEMENT_SET_NO": 999,
        "REV_AT_EPOCH": 6139,
        "BSTAR": 0.00016165,
        "MEAN_MOTION_DOT": 3.495e-05,
        "MEAN_MOTION_DDOT": 0
    },
    {
        "OBJECT_NAME": "SL-16 R/B",
        "OBJECT_ID": "1988-039B",
        "EPOCH": "2026-05-09T18:56:44.686176",
        "MEAN_MOTION": 14.19625561,
        "ECCENTRICITY": 0.0023894,
        "INCLINATION": 71.0143,
        "RA_OF_ASC_NODE": 299.3512,
        "ARG_OF_PERICENTER": 248.3402,
        "MEAN_ANOMALY": 111.5179,
        "EPHEMERIS_TYPE": 0,
        "CLASSIFICATION_TYPE": "U",
        "NORAD_CAT_ID": 19120,
        "ELEMENT_SET_NO": 999,
        "REV_AT_EPOCH": 96705,
        "BSTAR": 9.7545e-05,
        "MEAN_MOTION_DOT": 1.58e-06,
        "MEAN_MOTION_DDOT": 0
    },
    {
        "OBJECT_NAME": "COSMOS 1953",
        "OBJECT_ID": "1988-050A",
        "EPOCH": "2026-05-09T21:09:45.838656",
        "MEAN_MOTION": 15.29437084,
        "ECCENTRICITY": 0.0008641,
        "INCLINATION": 82.506,
        "RA_OF_ASC_NODE": 96.64,
        "ARG_OF_PERICENTER": 266.5126,
        "MEAN_ANOMALY": 93.5126,
        "EPHEMERIS_TYPE": 0,
        "CLASSIFICATION_TYPE": "U",
        "NORAD_CAT_ID": 19210,
        "ELEMENT_SET_NO": 999,
        "REV_AT_EPOCH": 4713,
        "BSTAR": 0.00020236,
        "MEAN_MOTION_DOT": 5.812e-05,
        "MEAN_MOTION_DDOT": 0
    },
    {
        "OBJECT_NAME": "SL-8 R/B",
        "OBJECT_ID": "1988-053B",
        "EPOCH": "2026-05-09T20:11:05.869824",
        "MEAN_MOTION": 14.38948593,
        "ECCENTRICITY": 0.0020056,
        "INCLINATION": 74.0487,
        "RA_OF_ASC_NODE": 359.7457,
        "ARG_OF_PERICENTER": 167.9481,
        "MEAN_ANOMALY": 271.1443,
        "EPHEMERIS_TYPE": 0,
        "CLASSIFICATION_TYPE": "U",
        "NORAD_CAT_ID": 19257,
        "ELEMENT_SET_NO": 999,
        "REV_AT_EPOCH": 98539,
        "BSTAR": 5.6374e-05,
        "MEAN_MOTION_DOT": 1.48e-06,
        "MEAN_MOTION_DDOT": 0
    }
]