SL-14 R/B               
1 17567U 87024B   26129.77361517  .00000299  00000+0  31150-4 0  9997
2 17567  82.5304  35.3525 0019632  60.8278 299.4900 14.86187182 97202
COSMOS 1833             
1 17589U 87027A   26129.66912337 -.00000056  00000+0 -42233-5 0  9992
2 17589  70.9150 197.8375 0022360 118.8833 241.4535 14.13031549 18935
SL-16 R/B               
1 17590U 87027B   26129.74772684 -.00000127  00000+0 -39298-4 0  9997
2 17590  70.9995 147.8306 0004465   1.4116 358.7020 14.17170625 23996
SL-14 R/B               
1 17912U 87038B   26129.79986054  .00000282  00000+0  29880-4 0  9996
2 17912  82.5022 239.2263 0018298 326.4846  33.5211 14.85421305 88306
COSMOS 1844             
1 17973U 87041A   26129.78018334  .00000097  00000+0  75335-4 0  9993
2 17973  70.8984 265.3169 0032771 289.2348  70.5229 14.14557506 12223
SL-14 R/B               
1 18153U 87055B   26129.83347178  .00000350  00000+0  37465-4 0  9990
2 18153  82.4970 291.3883 0020946 167.3763 192.7982 14.85680871 79011
COSMOS 1867             
1 18187U 87060A   26129.43021108 -.00000038  00000+0  23281-4 0  9996
2 18187  65.0084 136.5989 0015703 281.4555  78.4766 14.31511399 28631
SL-14 R/B               
1 18749U 88001B   26129.76558495  .00000312  00000+0  33115-4 0  9997
2 18749  82.5109 137.9217 0019059  40.5080 319.7551 14.85580376 51090
COSMOS 1933             
1 18958U 88020A   26129.62210678  .00002071  00000+0  98988-4 0  9996
2 18958  82.5143 190.6164 0003804  12.8314 347.3016 15.18486149 59473
SL-3 R/B                
1 19046U 88032B   26129.81474146  .00003495  00000+0  16165-3 0  9998
2 19046  97.5245 112.9088 0026344  24.8612 335.3886 15.20528197 61390
SL-16 R/B               
1 19120U 88039B   26129.78940609  .00000158  00000+0  97545-4 0  9991
2 19120  71.0143 299.3512 0023894 248.3402 111.5179 14.19625561967053
COSMOS 1953             
1 19210U 88050A   26129.88178054  .00005812  00000+0  20236-3 0  9996
2 19210  82.5060  96.6400 0008641 266.5126  93.5126 15.29437084 47132
SL-8 R/B                
1 19257U 88053B   26129.84104016  .00000148  00000+0  56374-4 0  9993
2 19257  74.0487 359.7457 0020056 167.9481 271.1443 14.38948593985395
